{"type": "FeatureCollection", "features": [{"type": "Feature", "properties": {"norad_id": 66313, "name": "YAOGAN-46", "group": "last-30-days", "lat": 19.71804443575787, "lon": 177.39055627792231, "alt_km": 7399.388183119035, "timestamp": "2025-12-03T22:42:31.474071+00:00", "meta": {"OBJECT_NAME": "YAOGAN-46", "OBJECT_ID": "2025-250A", "EPOCH": "2025-11-23T01:44:02.775840", "MEAN_MOTION": 5.35115916, "ECCENTRICITY": 0.00492374, "INCLINATION": 20.0335, "RA_OF_ASC_NODE": 104.8243, "ARG_OF_PERICENTER": 135.6954, "MEAN_ANOMALY": 224.7061, "EPHEMERIS_TYPE": 0, "CLASSIFICATION_TYPE": "U", "NORAD_CAT_ID": 66313, "ELEMENT_SET_NO": 999, "REV_AT_EPOCH": 114, "BSTAR": 0, "MEAN_MOTION_DOT": -7e-08, "MEAN_MOTION_DDOT": 0}, "tle": {"line1": "1 66313U 25250A   25327.07225435 -.00000007  00000+0  00000+0 0  9996", "line2": "2 66313  20.0335 104.8243 0049237 135.6954 224.7061  5.35115916  1148"}}, "geometry": {"type": "Point", "coordinates": [177.39055627792231, 19.71804443575787]}}, {"type": "Feature", "properties": {"norad_id": 66315, "name": "SENTINEL-1D", "group": "last-30-days", "lat": -6.256017770540233, "lon": -16.001085862079925, "alt_km": 698.9557403673934, "timestamp": "2025-12-03T22:42:31.474124+00:00", "meta": {"OBJECT_NAME": "SENTINEL-1D", "OBJECT_ID": "2025-251A", "EPOCH": "2025-12-03T11:13:23.701152", "MEAN_MOTION": 14.59910948, "ECCENTRICITY": 0.0002643, "INCLINATION": 98.1924, "RA_OF_ASC_NODE": 342.6213, "ARG_OF_PERICENTER": 153.1684, "MEAN_ANOMALY": 206.9653, "EPHEMERIS_TYPE": 0, "CLASSIFICATION_TYPE": "U", "NORAD_CAT_ID": 66315, "ELEMENT_SET_NO": 999, "REV_AT_EPOCH": 418, "BSTAR": 8.0504e-05, "MEAN_MOTION_DOT": 3.39e-06, "MEAN_MOTION_DDOT": 0}, "tle": {"line1": "1 66315U 25251A   25337.46763543  .00000339  00000+0  80504-4 0  9999", "line2": "2 66315  98.1924 342.6213 0002643 153.1684 206.9653 14.59910948  4184"}}, "geometry": {"type": "Point", "coordinates": [-16.001085862079925, -6.256017770540233]}}, {"type": "Feature", "properties": {"norad_id": 66316, "name": "QPS-SAR-14 (YACHIHOKO-I)", "group": "last-30-days", "lat": 39.431965683482815, "lon": -170.3631214230079, "alt_km": 563.6049093743468, "timestamp": "2025-12-03T22:42:31.474140+00:00", "meta": {"OBJECT_NAME": "QPS-SAR-14 (YACHIHOKO-I)", "OBJECT_ID": "2025-252A", "EPOCH": "2025-12-03T11:11:07.713600", "MEAN_MOTION": 14.97541562, "ECCENTRICITY": 0.0006838, "INCLINATION": 42.0031, "RA_OF_ASC_NODE": 126.2285, "ARG_OF_PERICENTER": 87.0305, "MEAN_ANOMALY": 273.1302, "EPHEMERIS_TYPE": 0, "CLASSIFICATION_TYPE": "U", "NORAD_CAT_ID": 66316, "ELEMENT_SET_NO": 999, "REV_AT_EPOCH": 414, "BSTAR": 0.00071031, "MEAN_MOTION_DOT": 8.256e-05, "MEAN_MOTION_DDOT": 0}, "tle": {"line1": "1 66316U 25252A   25337.46606150  .00008256  00000+0  71031-3 0  9991", "line2": "2 66316  42.0031 126.2285 0006838  87.0305 273.1302 14.97541562  4149"}}, "geometry": {"type": "Point", "coordinates": [-170.3631214230079, 39.431965683482815]}}, {"type": "Feature", "properties": {"norad_id": 66317, "name": "ELECTRON R/B", "group": "last-30-days", "lat": 41.70614259813724, "lon": -173.67960536589214, "alt_km": 181.79488489650248, "timestamp": "2025-12-03T22:42:31.474152+00:00", "meta": {"OBJECT_NAME": "ELECTRON R/B", "OBJECT_ID": "2025-252B", "EPOCH": "2025-12-03T17:54:17.702208", "MEAN_MOTION": 16.11372677, "ECCENTRICITY": 0.0081081, "INCLINATION": 41.986, "RA_OF_ASC_NODE": 105.3311, "ARG_OF_PERICENTER": 73.5218, "MEAN_ANOMALY": 287.4538, "EPHEMERIS_TYPE": 0, "CLASSIFICATION_TYPE": "U", "NORAD_CAT_ID": 66317, "ELEMENT_SET_NO": 999, "REV_AT_EPOCH": 440, "BSTAR": 0.0017947, "MEAN_MOTION_DOT": 0.03381088, "MEAN_MOTION_DDOT": 8.1863e-06}, "tle": {"line1": "1 66317U 25252B   25337.74603822  .03381088  81863-5  17947-2 0  9993", "line2": "2 66317  41.9860 105.3311 0081081  73.5218 287.4538 16.11372677  4407"}}, "geometry": {"type": "Point", "coordinates": [-173.67960536589214, 41.70614259813724]}}, {"type": "Feature", "properties": {"norad_id": 66319, "name": "STARLINK-35442", "group": "last-30-days", "lat": -7.524580203357384, "lon": 28.40357626157664, "alt_km": 444.4625269097678, "timestamp": "2025-12-03T22:42:31.474164+00:00", "meta": {"OBJECT_NAME": "STARLINK-35442", "OBJECT_ID": "2025-253A", "EPOCH": "2025-12-03T12:00:02.998944", "MEAN_MOTION": 15.40664245, "ECCENTRICITY": 0.0001055, "INCLINATION": 43.0009, "RA_OF_ASC_NODE": 39.124, "ARG_OF_PERICENTER": 268.8782, "MEAN_ANOMALY": 122.5263, "EPHEMERIS_TYPE": 0, "CLASSIFICATION_TYPE": "U", "NORAD_CAT_ID": 66319, "ELEMENT_SET_NO": 999, "REV_AT_EPOCH": 554, "BSTAR": 0.0020114, "MEAN_MOTION_DOT": 0.00084554, "MEAN_MOTION_DDOT": 0}, "tle": {"line1": "1 66319U 25253A   25337.50003471  .00084554  00000+0  20114-2 0  9997", "line2": "2 66319  43.0009  39.1240 0001055 268.8782 122.5263 15.40664245  5546"}}, "geometry": {"type": "Point", "coordinates": [28.40357626157664, -7.524580203357384]}}, {"type": "Feature", "properties": {"norad_id": 66320, "name": "STARLINK-34616", "group": "last-30-days", "lat": 21.94114344248203, "lon": -169.45226945895104, "alt_km": 410.5101812916155, "timestamp": "2025-12-03T22:42:31.474201+00:00", "meta": {"OBJECT_NAME": "STARLINK-34616", "OBJECT_ID": "2025-253B", "EPOCH": "2025-12-03T11:15:28.442880", "MEAN_MOTION": 15.50616353, "ECCENTRICITY": 0.0003705, "INCLINATION": 42.9968, "RA_OF_ASC_NODE": 38.956, "ARG_OF_PERICENTER": 219.5351, "MEAN_ANOMALY": 140.524, "EPHEMERIS_TYPE": 0, "CLASSIFICATION_TYPE": "U", "NORAD_CAT_ID": 66320, "ELEMENT_SET_NO": 999, "REV_AT_EPOCH": 557, "BSTAR": 0.0021204, "MEAN_MOTION_DOT": 0.00126267, "MEAN_MOTION_DDOT": 0}, "tle": {"line1": "1 66320U 25253B   25337.46907920  .00126267  00000+0  21204-2 0  9995", "line2": "2 66320  42.9968  38.9560 0003705 219.5351 140.5240 15.50616353  5577"}}, "geometry": {"type": "Point", "coordinates": [-169.45226945895104, 21.94114344248203]}}, {"type": "Feature", "properties": {"norad_id": 66321, "name": "STARLINK-34615", "group": "last-30-days", "lat": 39.490391549978966, "lon": 153.20605400447806, "alt_km": 399.87693368302644, "timestamp": "2025-12-03T22:42:31.474212+00:00", "meta": {"OBJECT_NAME": "STARLINK-34615", "OBJECT_ID": "2025-253C", "EPOCH": "2025-12-03T12:00:02.998944", "MEAN_MOTION": 15.56313072, "ECCENTRICITY": 0.0001086, "INCLINATION": 43.0003, "RA_OF_ASC_NODE": 38.0016, "ARG_OF_PERICENTER": 288.0579, "MEAN_ANOMALY": 202.1812, "EPHEMERIS_TYPE": 0, "CLASSIFICATION_TYPE": "U", "NORAD_CAT_ID": 66321, "ELEMENT_SET_NO": 999, "REV_AT_EPOCH": 549, "BSTAR": -0.037468, "MEAN_MOTION_DOT": -0.02370563, "MEAN_MOTION_DDOT": 0}, "tle": {"line1": "1 66321U 25253C   25337.50003471 -.02370563  00000+0 -37468-1 0  9991", "line2": "2 66321  43.0003  38.0016 0001086 288.0579 202.1812 15.56313072  5499"}}, "geometry": {"type": "Point", "coordinates": [153.20605400447806, 39.490391549978966]}}, {"type": "Feature", "properties": {"norad_id": 66322, "name": "STARLINK-35292", "group": "last-30-days", "lat": 17.546107965283507, "lon": 56.292832828307525, "alt_km": 442.03164994997405, "timestamp": "2025-12-03T22:42:31.474222+00:00", "meta": {"OBJECT_NAME": "STARLINK-35292", "OBJECT_ID": "2025-253D", "EPOCH": "2025-12-03T08:00:01.999872", "MEAN_MOTION": 15.40741255, "ECCENTRICITY": 0.0001089, "INCLINATION": 43.0008, "RA_OF_ASC_NODE": 39.9907, "ARG_OF_PERICENTER": 281.0636, "MEAN_ANOMALY": 302.2538, "EPHEMERIS_TYPE": 0, "CLASSIFICATION_TYPE": "U", "NORAD_CAT_ID": 66322, "ELEMENT_SET_NO": 999, "REV_AT_EPOCH": 541, "BSTAR": -0.0049108334, "MEAN_MOTION_DOT": -0.00200416, "MEAN_MOTION_DDOT": 0}, "tle": {"line1": "1 66322U 25253D   25337.33335648 -.00200416  00000+0 -49108-2 0  9999", "line2": "2 66322  43.0008  39.9907 0001089 281.0636 302.2538 15.40741255  5414"}}, "geometry": {"type": "Point", "coordinates": [56.292832828307525, 17.546107965283507]}}, {"type": "Feature", "properties": {"norad_id": 66323, "name": "STARLINK-35309", "group": "last-30-days", "lat": 11.924408049427191, "lon": -156.97147057238666, "alt_km": 412.86651977603105, "timestamp": "2025-12-03T22:42:31.474232+00:00", "meta": {"OBJECT_NAME": "STARLINK-35309", "OBJECT_ID": "2025-253E", "EPOCH": "2025-12-03T11:11:28.271616", "MEAN_MOTION": 15.50628793, "ECCENTRICITY": 0.0001247, "INCLINATION": 42.9992, "RA_OF_ASC_NODE": 38.9354, "ARG_OF_PERICENTER": 262.09, "MEAN_ANOMALY": 97.9819, "EPHEMERIS_TYPE": 0, "CLASSIFICATION_TYPE": "U", "NORAD_CAT_ID": 66323, "ELEMENT_SET_NO": 999, "REV_AT_EPOCH": 549, "BSTAR": 0.0018357, "MEAN_MOTION_DOT": 0.00109054, "MEAN_MOTION_DDOT": 0}, "tle": {"line1": "1 66323U 25253E   25337.46629944  .00109054  00000+0  18357-2 0  9995", "line2": "2 66323  42.9992  38.9354 0001247 262.0900  97.9819 15.50628793  5499"}}, "geometry": {"type": "Point", "coordinates": [-156.97147057238666, 11.924408049427191]}}, {"type": "Feature", "properties": {"norad_id": 66324, "name": "STARLINK-35506", "group": "last-30-days", "lat": 16.464381540935268, "lon": -162.3478007016711, "alt_km": 412.13657600165516, "timestamp": "2025-12-03T22:42:31.474243+00:00", "meta": {"OBJECT_NAME": "STARLINK-35506", "OBJECT_ID": "2025-253F", "EPOCH": "2025-12-02T21:18:38.393568", "MEAN_MOTION": 15.50722844, "ECCENTRICITY": 0.00011072, "INCLINATION": 42.9991, "RA_OF_ASC_NODE": 42.3374, "ARG_OF_PERICENTER": 339.0363, "MEAN_ANOMALY": 21.0451, "EPHEMERIS_TYPE": 0, "CLASSIFICATION_TYPE": "U", "NORAD_CAT_ID": 66324, "ELEMENT_SET_NO": 999, "REV_AT_EPOCH": 540, "BSTAR": 0.0016172001, "MEAN_MOTION_DOT": 0.00096197, "MEAN_MOTION_DDOT": 0}, "tle": {"line1": "1 66324U 25253F   25336.88794437  .00096197  00000+0  16172-2 0  9997", "line2": "2 66324  42.9991  42.3374 0001107 339.0363  21.0451 15.50722844  5406"}}, "geometry": {"type": "Point", "coordinates": [-162.3478007016711, 16.464381540935268]}}]}